GLOBALSTAR M023 [+]     
1 25621U 99004A   23299.70301927 -.00000075  00000+0  15827-3 0  9990
2 25621  52.0105  78.7760 0009099 236.3250 137.2090 12.62443783140012
GLOBALSTAR M040 [-]     
1 25622U 99004B   23299.70463265 -.00000089  00000+0  84138-4 0  9992
2 25622  51.9911  82.0514 0001303 126.1668 338.4387 12.61957971139560
GLOBALSTAR M036 [-]     
1 25623U 99004C   23299.52683049 -.00000036  00000+0  68486-3 0  9996
2 25623  51.9998  20.8252 0010519 347.8487 112.7004 11.86554982107795
GLOBALSTAR M038 [-]     
1 25624U 99004D   23299.89310838 -.00000060  00000+0  28516-3 0  9997
2 25624  51.9997 357.4053 0001517 233.2664 297.9553 12.32486521128474
GLOBALSTAR M022 [-]     
1 25649U 99012A   23299.85062630 -.00000053  00000+0  40152-3 0  9995
2 25649  52.0013 120.1295 0003574  72.3986  36.3831 12.02471640104278
GLOBALSTAR M041 [-]     
1 25650U 99012B   23299.82124229 -.00000087  00000+0 -23960-4 0  9994
2 25650  52.0044 343.3903 0001979 208.9561 151.1166 11.96644782106520
GLOBALSTAR M046 [-]     
1 25651U 99012C   23299.74252190 -.00000011  00000+0  85515-3 0  9994
2 25651  52.0039  92.4340 0003032 124.8967 337.1736 12.09377522111132
GLOBALSTAR M037 [+]     
1 25652U 99012D   23299.90780111 -.00000081  00000+0  12541-3 0  9998
2 25652  51.9997 209.0052 0001543 326.5757 112.1702 12.62386801135581
